[{"OBJECT_NAME":"STARLINK-4048","OBJECT_ID":"2022-062K","EPOCH":"2026-03-09T05:01:11.233056","MEAN_MOTION":15.08840918,"ECCENTRICITY":0.00013721,"INCLINATION":53.2189,"RA_OF_ASC_NODE":36.2792,"ARG_OF_PERICENTER":91.3967,"MEAN_ANOMALY":268.7182,"EPHEMERIS_TYPE":0,"CLASSIFICATION_TYPE":"U","NORAD_CAT_ID":52839,"ELEMENT_SET_NO":999,"REV_AT_EPOCH":20571,"BSTAR":4.2521691e-5,"MEAN_MOTION_DOT":3.89e-6,"MEAN_MOTION_DDOT":0},{"OBJECT_NAME":"OBJECT H","OBJECT_ID":"2017-042H","EPOCH":"2026-03-09T21:54:40.929408","MEAN_MOTION":15.07257911,"ECCENTRICITY":0.00117342,"INCLINATION":97.4058,"RA_OF_ASC_NODE":233.05,"ARG_OF_PERICENTER":93.954,"MEAN_ANOMALY":266.303,"EPHEMERIS_TYPE":0,"CLASSIFICATION_TYPE":"U","NORAD_CAT_ID":42832,"ELEMENT_SET_NO":999,"REV_AT_EPOCH":47198,"BSTAR":0.00041037265,"MEAN_MOTION_DOT":6.138e-5,"MEAN_MOTION_DDOT":0}]
